{"fetched_at":"2026-07-07T18:29:08.171Z","source":"https://celestrak.org/NORAD/elements/gp.php?GROUP=planet&FORMAT=JSON","constellation":"tanager","records":[{"OBJECT_NAME":"TANAGER-1","OBJECT_ID":"2024-149AR","EPOCH":"2026-07-07T02:41:45.032928","CLASSIFICATION_TYPE":"U","MEAN_MOTION":15.44037809,"ECCENTRICITY":0.0002809,"INCLINATION":97.2319,"RA_OF_ASC_NODE":282.2963,"ARG_OF_PERICENTER":175.8028,"MEAN_ANOMALY":184.3245,"EPHEMERIS_TYPE":0,"NORAD_CAT_ID":60507,"ELEMENT_SET_NO":999,"REV_AT_EPOCH":10611,"BSTAR":0.0000093231,"MEAN_MOTION_DOT":0.00000341,"MEAN_MOTION_DDOT":0}]}
